{
  "type": "FeatureCollection",
  "features": [
    {
      "type": "Feature",
      "properties": {
        "norad_id": 39773,
        "name": "EUTELSAT 3B",
        "group": "eutelsat",
        "lat": 0.03366911116317088,
        "lon": 8.826448899384593,
        "alt_km": 35800.99620695241,
        "timestamp": "2025-12-11T18:59:45.738291+00:00",
        "meta_object_name": "EUTELSAT 3B",
        "meta_object_id": "2014-030A",
        "meta_epoch": "2025-12-10T23:49:46.953984",
        "meta_mean_motion": 1.00272013,
        "meta_eccentricity": 0.00046411,
        "meta_inclination": 0.0617,
        "meta_ra_of_asc_node": 345.4375,
        "meta_arg_of_pericenter": 243.1309,
        "meta_mean_anomaly": 211.9454,
        "meta_ephemeris_type": 0,
        "meta_classification_type": "U",
        "meta_norad_cat_id": 39773,
        "meta_element_set_no": 999,
        "meta_rev_at_epoch": 4218,
        "meta_bstar": 0,
        "meta_mean_motion_dot": 2.5e-07,
        "meta_mean_motion_ddot": 0,
        "tle_line1": "1 39773U 14030A   25344.99290456  .00000025  00000+0  00000+0 0  9994",
        "tle_line2": "2 39773   0.0617 345.4375 0004641 243.1309 211.9454  1.00272013 42180"
      },
      "geometry": {
        "type": "Point",
        "coordinates": [
          8.826448899384593,
          0.03366911116317088
        ]
      }
    },
    {
      "type": "Feature",
      "properties": {
        "norad_id": 40425,
        "name": "EUTELSAT 115 WEST B",
        "group": "eutelsat",
        "lat": 0.009045353838285851,
        "lon": -109.22488432965196,
        "alt_km": 35786.77306120954,
        "timestamp": "2025-12-11T18:59:45.738316+00:00",
        "meta_object_name": "EUTELSAT 115 WEST B",
        "meta_object_id": "2015-010B",
        "meta_epoch": "2025-12-10T23:16:05.182752",
        "meta_mean_motion": 1.00269045,
        "meta_eccentricity": 3.113e-05,
        "meta_inclination": 0.0085,
        "meta_ra_of_asc_node": 151.2991,
        "meta_arg_of_pericenter": 11.6564,
        "meta_mean_anomaly": 151.0992,
        "meta_ephemeris_type": 0,
        "meta_classification_type": "U",
        "meta_norad_cat_id": 40425,
        "meta_element_set_no": 999,
        "meta_rev_at_epoch": 3950,
        "meta_bstar": 0,
        "meta_mean_motion_dot": -1.9e-07,
        "meta_mean_motion_ddot": 0,
        "tle_line1": "1 40425U 15010B   25344.96950443 -.00000019  00000+0  00000+0 0  9999",
        "tle_line2": "2 40425   0.0085 151.2991 0000311  11.6564 151.0992  1.00269045 39507"
      },
      "geometry": {
        "type": "Point",
        "coordinates": [
          -109.22488432965196,
          0.009045353838285851
        ]
      }
    },
    {
      "type": "Feature",
      "properties": {
        "norad_id": 40875,
        "name": "EUTELSAT 8 WEST B",
        "group": "eutelsat",
        "lat": -0.002358387416137772,
        "lon": -2.25363806765675,
        "alt_km": 35788.16943810302,
        "timestamp": "2025-12-11T18:59:45.738331+00:00",
        "meta_object_name": "EUTELSAT 8 WEST B",
        "meta_object_id": "2015-039B",
        "meta_epoch": "2025-12-11T03:11:59.032032",
        "meta_mean_motion": 1.0027158,
        "meta_eccentricity": 0.00041901,
        "meta_inclination": 0.0649,
        "meta_ra_of_asc_node": 4.4095,
        "meta_arg_of_pericenter": 256.7362,
        "meta_mean_anomaly": 218.9643,
        "meta_ephemeris_type": 0,
        "meta_classification_type": "U",
        "meta_norad_cat_id": 40875,
        "meta_element_set_no": 999,
        "meta_rev_at_epoch": 3777,
        "meta_bstar": 0,
        "meta_mean_motion_dot": -6e-07,
        "meta_mean_motion_ddot": 0,
        "tle_line1": "1 40875U 15039B   25345.13332213 -.00000060  00000+0  00000+0 0  9994",
        "tle_line2": "2 40875   0.0649   4.4095 0004190 256.7362 218.9643  1.00271580 37773"
      },
      "geometry": {
        "type": "Point",
        "coordinates": [
          -2.25363806765675,
          -0.002358387416137772
        ]
      }
    },
    {
      "type": "Feature",
      "properties": {
        "norad_id": 41310,
        "name": "EUTELSAT 9B",
        "group": "eutelsat",
        "lat": -0.01825836553649085,
        "lon": 14.758383914933372,
        "alt_km": 35792.117635183924,
        "timestamp": "2025-12-11T18:59:45.738344+00:00",
        "meta_object_name": "EUTELSAT 9B",
        "meta_object_id": "2016-005A",
        "meta_epoch": "2025-12-11T04:59:33.728928",
        "meta_mean_motion": 1.00273032,
        "meta_eccentricity": 0.00047985,
        "meta_inclination": 0.0412,
        "meta_ra_of_asc_node": 60.4981,
        "meta_arg_of_pericenter": 205.8314,
        "meta_mean_anomaly": 257.753,
        "meta_ephemeris_type": 0,
        "meta_classification_type": "U",
        "meta_norad_cat_id": 41310,
        "meta_element_set_no": 999,
        "meta_rev_at_epoch": 3623,
        "meta_bstar": 0,
        "meta_mean_motion_dot": 6.8e-07,
        "meta_mean_motion_ddot": 0,
        "tle_line1": "1 41310U 16005A   25345.20802927  .00000068  00000+0  00000+0 0  9992",
        "tle_line2": "2 41310   0.0412  60.4981 0004798 205.8314 257.7530  1.00273032 36238"
      },
      "geometry": {
        "type": "Point",
        "coordinates": [
          14.758383914933372,
          -0.01825836553649085
        ]
      }
    },
    {
      "type": "Feature",
      "properties": {
        "norad_id": 41382,
        "name": "EUTELSAT 65 WEST A",
        "group": "eutelsat",
        "lat": -0.05921230767480741,
        "lon": -59.50002893897405,
        "alt_km": 35776.915405474305,
        "timestamp": "2025-12-11T18:59:45.738356+00:00",
        "meta_object_name": "EUTELSAT 65 WEST A",
        "meta_object_id": "2016-014A",
        "meta_epoch": "2025-12-11T03:56:38.654592",
        "meta_mean_motion": 1.00272332,
        "meta_eccentricity": 0.00025742,
        "meta_inclination": 0.0508,
        "meta_ra_of_asc_node": 10.2619,
        "meta_arg_of_pericenter": 256.8419,
        "meta_mean_anomaly": 166.9856,
        "meta_ephemeris_type": 0,
        "meta_classification_type": "U",
        "meta_norad_cat_id": 41382,
        "meta_element_set_no": 999,
        "meta_rev_at_epoch": 3565,
        "meta_bstar": 0,
        "meta_mean_motion_dot": -2.7e-06,
        "meta_mean_motion_ddot": 0,
        "tle_line1": "1 41382U 16014A   25345.16433628 -.00000270  00000+0  00000+0 0  9990",
        "tle_line2": "2 41382   0.0508  10.2619 0002574 256.8419 166.9856  1.00272332 35655"
      },
      "geometry": {
        "type": "Point",
        "coordinates": [
          -59.50002893897405,
          -0.05921230767480741
        ]
      }
    },
    {
      "type": "Feature",
      "properties": {
        "norad_id": 41589,
        "name": "EUTELSAT 117 WEST B",
        "group": "eutelsat",
        "lat": 0.02296771434047808,
        "lon": -111.307394606189,
        "alt_km": 35787.638905850916,
        "timestamp": "2025-12-11T18:59:45.738369+00:00",
        "meta_object_name": "EUTELSAT 117 WEST B",
        "meta_object_id": "2016-038B",
        "meta_epoch": "2025-12-10T23:15:27.743040",
        "meta_mean_motion": 1.00269754,
        "meta_eccentricity": 3.232e-05,
        "meta_inclination": 0.0411,
        "meta_ra_of_asc_node": 158.7318,
        "meta_arg_of_pericenter": 311.552,
        "meta_mean_anomaly": 201.5309,
        "meta_ephemeris_type": 0,
        "meta_classification_type": "U",
        "meta_norad_cat_id": 41589,
        "meta_element_set_no": 999,
        "meta_rev_at_epoch": 3477,
        "meta_bstar": 0,
        "meta_mean_motion_dot": -6e-08,
        "meta_mean_motion_ddot": 0,
        "tle_line1": "1 41589U 16038B   25344.96907110 -.00000006  00000+0  00000+0 0  9991",
        "tle_line2": "2 41589   0.0411 158.7318 0000323 311.5520 201.5309  1.00269754 34778"
      },
      "geometry": {
        "type": "Point",
        "coordinates": [
          -111.307394606189,
          0.02296771434047808
        ]
      }
    },
    {
      "type": "Feature",
      "properties": {
        "norad_id": 42741,
        "name": "EUTELSAT 172B",
        "group": "eutelsat",
        "lat": 0.018997565967348667,
        "lon": 177.6748777879962,
        "alt_km": 35786.561750713336,
        "timestamp": "2025-12-11T18:59:45.738381+00:00",
        "meta_object_name": "EUTELSAT 172B",
        "meta_object_id": "2017-029B",
        "meta_epoch": "2025-12-11T04:38:38.718816",
        "meta_mean_motion": 1.00269594,
        "meta_eccentricity": 7.94e-06,
        "meta_inclination": 0.0435,
        "meta_ra_of_asc_node": 149.198,
        "meta_arg_of_pericenter": 99.6922,
        "meta_mean_anomaly": 72.9259,
        "meta_ephemeris_type": 0,
        "meta_classification_type": "U",
        "meta_norad_cat_id": 42741,
        "meta_element_set_no": 999,
        "meta_rev_at_epoch": 3184,
        "meta_bstar": 0,
        "meta_mean_motion_dot": 0,
        "meta_mean_motion_ddot": 0,
        "tle_line1": "1 42741U 17029B   25345.19350369  .00000000  00000+0  00000+0 0  9990",
        "tle_line2": "2 42741   0.0435 149.1980 0000079  99.6922  72.9259  1.00269594 31843"
      },
      "geometry": {
        "type": "Point",
        "coordinates": [
          177.6748777879962,
          0.018997565967348667
        ]
      }
    }
  ]
}